[{"OBJECT_NAME":"STARLINK-32230","OBJECT_ID":"2024-138M","EPOCH":"2026-03-09T22:36:01.923552","MEAN_MOTION":15.3019181,"ECCENTRICITY":0.00010293,"INCLINATION":53.1604,"RA_OF_ASC_NODE":308.6154,"ARG_OF_PERICENTER":70.9667,"MEAN_ANOMALY":289.1445,"EPHEMERIS_TYPE":0,"CLASSIFICATION_TYPE":"U","NORAD_CAT_ID":60366,"ELEMENT_SET_NO":999,"REV_AT_EPOCH":9066,"BSTAR":3.5197328e-5,"MEAN_MOTION_DOT":6.83e-6,"MEAN_MOTION_DDOT":0},{"OBJECT_NAME":"COSMOS 2251 DEB","OBJECT_ID":"1993-036BXP","EPOCH":"2026-03-04T07:23:49.847712","MEAN_MOTION":15.24789556,"ECCENTRICITY":0.00190834,"INCLINATION":73.9759,"RA_OF_ASC_NODE":64.3004,"ARG_OF_PERICENTER":239.4537,"MEAN_ANOMALY":120.4779,"EPHEMERIS_TYPE":0,"CLASSIFICATION_TYPE":"U","NORAD_CAT_ID":47059,"ELEMENT_SET_NO":999,"REV_AT_EPOCH":9543,"BSTAR":0.0048704033,"MEAN_MOTION_DOT":0.00123422,"MEAN_MOTION_DDOT":0}]
